TITAN 3C TRANSTAGE R/B  
1 05854U 72010B   24120.65057374  .00000085  00000+0  00000+0 0  9999
2 05854   1.1075 267.9046 0063627 150.1039 210.1476  1.00659832 17042
